[Satellite]
VERSION=1.1
NAME=FLOCK 3P-19
NICKNAME=FLOCK 3P-19
TLE1=1 41955U 17008H   18021.16658089  .00002946  00000-0  12518-3 0  9996
TLE2=2 41955  97.4687  86.7045 0010226 141.2984 218.8987 15.23808102 51635
